start=new Date('2022-01-13T00:00:00.000Z').valueOf();
sats=[{"SITE":"AFETR","MEAN_ELEMENT_THEORY":"SGP4","BSTAR":"0.00012324000000","LAUNCH_DATE":"2020-09-03","MEAN_ANOMALY":"294.6725","MEAN_MOTION_DDOT":"0.0000000000000","PERIAPSIS":"546.005","EPOCH":"2022-01-12T14:19:58.843776","OBJECT_ID":"2020-062E","FILE":"3270709","MEAN_MOTION":"15.06397211","REF_FRAME":"TEME","PERIOD":"95.592","REV_AT_EPOCH":"7592","APOAPSIS":"548.439","ECCENTRICITY":"0.00017570","GP_ID":"193733291","OBJECT_NAME":"STARLINK-1695","OBJECT_TYPE":"PAYLOAD","EPHEMERIS_TYPE":"0","NORAD_CAT_ID":"46329","MEAN_MOTION_DOT":"0.00001554","INCLINATION":"53.0559","COUNTRY_CODE":"US","RA_OF_ASC_NODE":"327.1063","ELEMENT_SET_NO":"999","CLASSIFICATION_TYPE":"U","RCS_SIZE":"LARGE","TLE_LINE1":"1 46329U 20062E   22012.59720884  .00001554  00000-0  12324-3 0  9994","DECAY_DATE":null,"ARG_OF_PERICENTER":"65.4447","CENTER_NAME":"EARTH","TIME_SYSTEM":"UTC","SEMIMAJOR_AXIS":"6925.357","TLE_LINE2":"2 46329  53.0559 327.1063 0001757  65.4447 294.6725 15.06397211 75928"},{"OBJECT_ID":"2020-062F","FILE":"3270709","PERIAPSIS":"546.040","EPOCH":"2022-01-12T14:04:03.605376","REV_AT_EPOCH":"7593","MEAN_MOTION":"15.06400053","REF_FRAME":"TEME","PERIOD":"95.592","LAUNCH_DATE":"2020-09-03","SITE":"AFETR","MEAN_ELEMENT_THEORY":"SGP4","BSTAR":"0.00008220900000","MEAN_MOTION_DDOT":"0.0000000000000","MEAN_ANOMALY":"294.1781","ARG_OF_PERICENTER":"65.9385","CENTER_NAME":"EARTH","DECAY_DATE":null,"TLE_LINE1":"1 46330U 20062F   22012.58615284  .00000943  00000-0  82209-4 0  9993","TLE_LINE2":"2 46330  53.0546 327.1568 0001695  65.9385 294.1781 15.06400053 75930","SEMIMAJOR_AXIS":"6925.348","TIME_SYSTEM":"UTC","COUNTRY_CODE":"US","RA_OF_ASC_NODE":"327.1568","APOAPSIS":"548.387","GP_ID":"193734542","ECCENTRICITY":"0.00016950","OBJECT_TYPE":"PAYLOAD","EPHEMERIS_TYPE":"0","OBJECT_NAME":"STARLINK-1710","NORAD_CAT_ID":"46330","MEAN_MOTION_DOT":"0.00000943","INCLINATION":"53.0546","CLASSIFICATION_TYPE":"U","RCS_SIZE":"LARGE","ELEMENT_SET_NO":"999"},{"SEMIMAJOR_AXIS":"6925.348","TIME_SYSTEM":"UTC","TLE_LINE2":"2 46331  53.0568 348.2080 0001632  73.0203 287.0965 15.06400064 75610","DECAY_DATE":null,"TLE_LINE1":"1 46331U 20062G   22012.35578638 -.00001598  00000-0 -88417-4 0  9996","CENTER_NAME":"EARTH","ARG_OF_PERICENTER":"73.0203","ELEMENT_SET_NO":"999","RCS_SIZE":"LARGE","CLASSIFICATION_TYPE":"U","OBJECT_TYPE":"PAYLOAD","NORAD_CAT_ID":"46331","OBJECT_NAME":"STARLINK-1719","EPHEMERIS_TYPE":"0","MEAN_MOTION_DOT":"-0.00001598","INCLINATION":"53.0568","APOAPSIS":"548.344","ECCENTRICITY":"0.00016320","GP_ID":"193734293","RA_OF_ASC_NODE":"348.2080","COUNTRY_CODE":"US","REF_FRAME":"TEME","PERIOD":"95.592","MEAN_MOTION":"15.06400064","REV_AT_EPOCH":"7561","EPOCH":"2022-01-12T08:32:19.943232","PERIAPSIS":"546.083","FILE":"3270709","OBJECT_ID":"2020-062G","MEAN_ANOMALY":"287.0965","MEAN_MOTION_DDOT":"0.0000000000000","MEAN_ELEMENT_THEORY":"SGP4","BSTAR":"-0.00008841700000","SITE":"AFETR","LAUNCH_DATE":"2020-09-03"},{"PERIOD":"95.592","REF_FRAME":"TEME","MEAN_MOTION":"15.06399727","REV_AT_EPOCH":"7560","EPOCH":"2022-01-12T07:12:42.235776","PERIAPSIS":"545.987","FILE":"3270709","OBJECT_ID":"2020-062H","MEAN_ANOMALY":"299.1919","MEAN_MOTION_DDOT":"0.0000000000000","BSTAR":"0.00002946900000","MEAN_ELEMENT_THEORY":"SGP4","SITE":"AFETR","LAUNCH_DATE":"2020-09-03","SEMIMAJOR_AXIS":"6925.349","TIME_SYSTEM":"UTC","TLE_LINE2":"2 46332  53.0568 348.4404 0001772  60.9247 299.1919 15.06399727 75606","DECAY_DATE":null,"TLE_LINE1":"1 46332U 20062H   22012.30048884  .00000157  00000-0  29469-4 0  9997","CENTER_NAME":"EARTH","ARG_OF_PERICENTER":"60.9247","ELEMENT_SET_NO":"999","RCS_SIZE":"LARGE","CLASSIFICATION_TYPE":"U","INCLINATION":"53.0568","MEAN_MOTION_DOT":"0.00000157","EPHEMERIS_TYPE":"0","OBJECT_TYPE":"PAYLOAD","OBJECT_NAME":"STARLINK-1721","NORAD_CAT_ID":"46332","GP_ID":"193733539","ECCENTRICITY":"0.00017720","APOAPSIS":"548.442","RA_OF_ASC_NODE":"348.4404","COUNTRY_CODE":"US"},{"CLASSIFICATION_TYPE":"U","RCS_SIZE":"LARGE","ELEMENT_SET_NO":"999","COUNTRY_CODE":"US","RA_OF_ASC_NODE":"348.3848","APOAPSIS":"548.339","GP_ID":"193733791","ECCENTRICITY":"0.00016120","OBJECT_NAME":"STARLINK-1723","OBJECT_TYPE":"PAYLOAD","EPHEMERIS_TYPE":"0","NORAD_CAT_ID":"46333","MEAN_MOTION_DOT":"0.00000525","INCLINATION":"53.0559","TLE_LINE2":"2 46333  53.0559 348.3848 0001612  74.7523 285.3644 15.06396998 75600","SEMIMAJOR_AXIS":"6925.358","TIME_SYSTEM":"UTC","ARG_OF_PERICENTER":"74.7523","CENTER_NAME":"EARTH","DECAY_DATE":null,"TLE_LINE1":"1 46333U 20062J   22012.31523634  .00000525  00000-0  54166-4 0  9991","MEAN_MOTION_DDOT":"0.0000000000000","MEAN_ANOMALY":"285.3644","LAUNCH_DATE":"2020-09-03","SITE":"AFETR","MEAN_ELEMENT_THEORY":"SGP4","BSTAR":"0.00005416600000","REV_AT_EPOCH":"7560","MEAN_MOTION":"15.06396998","REF_FRAME":"TEME","PERIOD":"95.592","OBJECT_ID":"2020-062J","FILE":"3270709","PERIAPSIS":"546.106","EPOCH":"2022-01-12T07:33:56.419776"},{"REF_FRAME":"TEME","PERIOD":"95.592","MEAN_MOTION":"15.06395959","REV_AT_EPOCH":"7588","EPOCH":"2022-01-12T06:58:05.452896","PERIAPSIS":"545.783","FILE":"3270709","OBJECT_ID":"2020-062K","MEAN_ANOMALY":"287.7699","MEAN_MOTION_DDOT":"0.0000000000000","MEAN_ELEMENT_THEORY":"SGP4","BSTAR":"-0.00009185300000","SITE":"AFETR","LAUNCH_DATE":"2020-09-03","SEMIMAJOR_AXIS":"6925.361","TIME_SYSTEM":"UTC","TLE_LINE2":"2 46334  53.0564 328.4801 0002083  72.3517 287.7699 15.06395959 75887","TLE_LINE1":"1 46334U 20062K   22012.29034089 -.00001650  00000-0 -91853-4 0  9996","DECAY_DATE":null,"CENTER_NAME":"EARTH","ARG_OF_PERICENTER":"72.3517","ELEMENT_SET_NO":"999","RCS_SIZE":"LARGE","CLASSIFICATION_TYPE":"U","OBJECT_TYPE":"PAYLOAD","OBJECT_NAME":"STARLINK-1725","EPHEMERIS_TYPE":"0","NORAD_CAT_ID":"46334","INCLINATION":"53.0564","MEAN_MOTION_DOT":"-0.00001650","APOAPSIS":"548.668","GP_ID":"193734043","ECCENTRICITY":"0.00020830","RA_OF_ASC_NODE":"328.4801","COUNTRY_CODE":"US"},{"PERIOD":"95.592","REF_FRAME":"TEME","MEAN_MOTION":"15.06403736","REV_AT_EPOCH":"7562","EPOCH":"2022-01-12T09:51:56.224224","PERIAPSIS":"545.982","FILE":"3270709","OBJECT_ID":"2020-062L","MEAN_ANOMALY":"294.1900","MEAN_MOTION_DDOT":"0.0000000000000","BSTAR":"-0.00002801800000","MEAN_ELEMENT_THEORY":"SGP4","SITE":"AFETR","LAUNCH_DATE":"2020-09-03","SEMIMAJOR_AXIS":"6925.337","TIME_SYSTEM":"UTC","TLE_LINE2":"2 46335  53.0569 347.9435 0001762  65.9273 294.1900 15.06403736 75624","TLE_LINE1":"1 46335U 20062L   22012.41106741 -.00000699  00000-0 -28018-4 0  9991","DECAY_DATE":null,"CENTER_NAME":"EARTH","ARG_OF_PERICENTER":"65.9273","ELEMENT_SET_NO":"999","RCS_SIZE":"LARGE","CLASSIFICATION_TYPE":"U","MEAN_MOTION_DOT":"-0.00000699","INCLINATION":"53.0569","EPHEMERIS_TYPE":"0","OBJECT_TYPE":"PAYLOAD","OBJECT_NAME":"STARLINK-1727","NORAD_CAT_ID":"46335","GP_ID":"193734793","ECCENTRICITY":"0.00017620","APOAPSIS":"548.422","RA_OF_ASC_NODE":"347.9435","COUNTRY_CODE":"US"},{"CENTER_NAME":"EARTH","ARG_OF_PERICENTER":"56.1231","DECAY_DATE":null,"TLE_LINE1":"1 46336U 20062M   22012.26915870  .00000734  00000-0  68183-4 0  9991","TLE_LINE2":"2 46336  53.0561 328.5928 0001821  56.1231 303.9931 15.06401386 75870","SEMIMAJOR_AXIS":"6925.344","TIME_SYSTEM":"UTC","RA_OF_ASC_NODE":"328.5928","COUNTRY_CODE":"US","MEAN_MOTION_DOT":"0.00000734","INCLINATION":"53.0561","OBJECT_TYPE":"PAYLOAD","NORAD_CAT_ID":"46336","OBJECT_NAME":"STARLINK-1738","EPHEMERIS_TYPE":"0","ECCENTRICITY":"0.00018210","GP_ID":"193733040","APOAPSIS":"548.470","RCS_SIZE":"LARGE","CLASSIFICATION_TYPE":"U","ELEMENT_SET_NO":"999","FILE":"3270709","OBJECT_ID":"2020-062M","EPOCH":"2022-01-12T06:27:35.311680","PERIAPSIS":"545.948","REV_AT_EPOCH":"7587","PERIOD":"95.592","REF_FRAME":"TEME","MEAN_MOTION":"15.06401386","LAUNCH_DATE":"2020-09-03","BSTAR":"0.00006818300000","MEAN_ELEMENT_THEORY":"SGP4","SITE":"AFETR","MEAN_MOTION_DDOT":"0.0000000000000","MEAN_ANOMALY":"303.9931"},{"OBJECT_ID":"2020-062N","FILE":"3270709","PERIAPSIS":"546.043","EPOCH":"2022-01-12T08:24:21.287232","REV_AT_EPOCH":"7589","MEAN_MOTION":"15.06402868","REF_FRAME":"TEME","PERIOD":"95.592","LAUNCH_DATE":"2020-09-03","SITE":"AFETR","MEAN_ELEMENT_THEORY":"SGP4","BSTAR":"0.00005919500000","MEAN_MOTION_DDOT":"0.0000000000000","MEAN_ANOMALY":"291.6442","ARG_OF_PERICENTER":"68.4726","CENTER_NAME":"EARTH","DECAY_DATE":null,"TLE_LINE1":"1 46337U 20062N   22012.35024638  .00000600  00000-0  59195-4 0  9990","TLE_LINE2":"2 46337  53.0549 328.2097 0001678  68.4726 291.6442 15.06402868 75894","SEMIMAJOR_AXIS":"6925.340","TIME_SYSTEM":"UTC","COUNTRY_CODE":"US","RA_OF_ASC_NODE":"328.2097","APOAPSIS":"548.367","ECCENTRICITY":"0.00016780","GP_ID":"193733292","EPHEMERIS_TYPE":"0","OBJECT_TYPE":"PAYLOAD","OBJECT_NAME":"STARLINK-1750","NORAD_CAT_ID":"46337","INCLINATION":"53.0549","MEAN_MOTION_DOT":"0.00000600","CLASSIFICATION_TYPE":"U","RCS_SIZE":"LARGE","ELEMENT_SET_NO":"999"},{"BSTAR":"-0.00004470200000","MEAN_ELEMENT_THEORY":"SGP4","SITE":"AFETR","LAUNCH_DATE":"2020-09-03","MEAN_ANOMALY":"299.7576","MEAN_MOTION_DDOT":"0.0000000000000","EPOCH":"2022-01-12T09:36:01.445472","PERIAPSIS":"545.845","FILE":"3270709","OBJECT_ID":"2020-062P","PERIOD":"95.592","REF_FRAME":"TEME","MEAN_MOTION":"15.06400374","REV_AT_EPOCH":"7561","MEAN_MOTION_DOT":"-0.00000947","INCLINATION":"53.0563","OBJECT_NAME":"STARLINK-1752","OBJECT_TYPE":"PAYLOAD","EPHEMERIS_TYPE":"0","NORAD_CAT_ID":"46338","ECCENTRICITY":"0.00019750","GP_ID":"193734543","APOAPSIS":"548.580","RA_OF_ASC_NODE":"347.9878","COUNTRY_CODE":"US","ELEMENT_SET_NO":"999","RCS_SIZE":"LARGE","CLASSIFICATION_TYPE":"U","TLE_LINE1":"1 46338U 20062P   22012.40001673 -.00000947  00000-0 -44702-4 0  9995","DECAY_DATE":null,"CENTER_NAME":"EARTH","ARG_OF_PERICENTER":"60.3609","SEMIMAJOR_AXIS":"6925.347","TIME_SYSTEM":"UTC","TLE_LINE2":"2 46338  53.0563 347.9878 0001975  60.3609 299.7576 15.06400374 75614"}];
